ORBCOMM FM117           
1 41188U 15081K   25124.21435257  .00001362  00000+0  32975-3 0  9990
2 41188  47.0019 313.4016 0002736 128.1692 231.9440 14.58079699500477
ORBCOMM FM116           
1 41189U 15081L   25124.47752424  .00001435  00000+0  34532-3 0  9999
2 41189  47.0036  42.0044 0002923 310.0389  50.0240 14.58088913499346
CHUBUSAT-2              
1 41338U 16012B   25123.31414892  .00009549  00000+0  48799-3 0  9990
2 41338  30.9984 119.4452 0010367 226.7680 133.2094 15.15319548506081
CHUBUSAT-3              
1 41339U 16012C   25124.38766900  .00006405  00000+0  33919-3 0  9995
2 41339  31.0052 114.2291 0010557 236.6425 123.3204 15.13898027506199
HORYU-4                 
1 41340U 16012D   25124.09020606  .00029473  00000+0  82945-3 0  9994
2 41340  30.9977  17.0351 0007495  27.1826 332.9210 15.35234154507170
ZIYUAN 3-2 (ZY 3-2)     
1 41556U 16033A   25124.53439020  .00008526  00000+0  38342-3 0  9997
2 41556  97.4195 202.0973 0006500 283.4257  76.6254 15.21342261495851
CARTOSAT-2C             
1 41599U 16040A   25124.50653105  .00007209  00000+0  34326-3 0  9996
2 41599  97.4249 185.2834 0013586 118.7030 241.5572 15.19362295491664
LAPAN-A3                
1 41603U 16040E   25124.52329319  .00005095  00000+0  17977-3 0  9995
2 41603  97.1384 130.5518 0012346  46.1059 314.1200 15.29597382492278
BIROS                   
1 41604U 16040F   25124.06422397  .00037853  00000+0  46994-3 0  9993
2 41604  97.0901 152.9623 0003314 324.7276  35.3761 15.59916838493807
M3MSAT                  
1 41605U 16040G   25124.54815745  .00045859  00000+0  56053-3 0  9992
2 41605  97.0849 150.4674 0003548 347.6978  12.4192 15.60288772493692
GAOFEN-3                
1 41727U 16049A   25124.51616043  .00000126  00000+0  51643-4 0  9992
2 41727  98.4044 133.4198 0000879  78.3818 281.7471 14.42148583459738
QSS (MOZI)              
1 41731U 16051A   25124.51675639  .00017882  00000+0  30625-3 0  9999
2 41731  97.3002  43.7503 0009972 124.8061 235.4131 15.51233374486270
PRATHAM                 
1 41783U 16059A   25124.00463019  .00001414  00000+0  26236-3 0  9992
2 41783  97.8251 134.3826 0033271  81.8645 278.6331 14.66344337459539
ALSAT 1N                
1 41789U 16059G   25124.50865410  .00001658  00000+0  29380-3 0  9997
2 41789  97.8069 141.3161 0027683  56.2953 304.0886 14.68286140460013
CAS-2T & KS-1Q          
1 41847U 16066G   25124.21905042  .00001258  00000+0  18964-3 0  9996
2 41847  98.4208 198.9950 0345263 288.5807  67.8178 14.43386430445779
YUNHAI-1 01             
1 41857U 16068A   25124.47182302  .00000480  00000+0  19009-3 0  9990
2 41857  98.5911 134.1010 0007107 123.4734 236.7130 14.33353016443304
RESOURCESAT-2A          
1 41877U 16074A   25124.50205672  .00000265  00000+0  14025-3 0  9993
2 41877  98.6065 196.8492 0002164 114.1794 245.9611 14.21689194436244
TANSAT                  
1 41898U 16081A   25124.51239610  .00000854  00000+0  18985-3 0  9997
2 41898  98.5105 108.4416 0021621 129.0967 231.2159 14.59511925445008
JILIN-1 03              
1 41914U 17002B   25124.49922335  .00011286  00000+0  38246-3 0  9993
2 41914  97.2028 135.6790 0007092 185.5870 174.5294 15.30693942459138
KAIDUN 1                
1 41915U 17002C   25124.53197185  .00058778  00000+0  79183-3 0  9998
2 41915  97.1593 153.1177 0005844 140.3843 219.7841 15.57635735460363
CARTOSAT-2D             
1 41948U 17008A   25124.14379766  .00006866  00000+0  32836-3 0  9999
2 41948  97.4638 184.5742 0005309 212.7391 147.3515 15.19300184455471
ZHUHAI-1 02 (CAS-4B)    
1 42759U 17034B   25124.51020635  .00065430  00000+0  81441-3 0  9996
2 42759  43.0071 176.1426 0018474  35.3852 324.8234 15.58860019436968
ZHUHAI-1 01 (CAS-4A)    
1 42761U 17034D   25124.50523859  .00065782  00000+0  78795-3 0  9992
2 42761  43.0107 173.6723 0019668  40.1619 320.0695 15.59836347436983
CARTOSAT-2E             
1 42767U 17036C   25124.48814759  .00006483  00000+0  31014-3 0  9995
2 42767  97.4808 184.5165 0002141 265.2688  94.8302 15.19322534436092
D-SAT                   
1 42794U 17036AF  25124.45435312  .00007604  00000+0  42791-3 0  9996
2 42794  97.5133 103.0435 0096191 131.0318 229.9277 15.09594350429076
IRIDIUM 113             
1 42803U 17039A   25124.11776796  .00000016  00000+0 -14590-5 0  9996
2 42803  86.3955 133.1781 0002007  85.5722 274.5703 14.34217467412551
NORSAT 2                
1 42828U 17042D   25124.49956807  .00011322  00000+0  66134-3 0  9991
2 42828  97.3855 303.1928 0012363  39.9720 320.2418 15.12002772425776
TECHNOSAT               
1 42829U 17042E   25124.52673320  .00004422  00000+0  34542-3 0  9993
2 42829  97.3937 294.9605 0015254  47.0322 313.2179 15.01501257425313
FLYING LAPTOP           
1 42831U 17042G   25124.19748695  .00003281  00000+0  27799-3 0  9995
2 42831  97.4030 293.6212 0012762  77.8055 282.4597 14.98571116425155
WNISAT 1R               
1 42835U 17042L   25124.43740169  .00003419  00000+0  28718-3 0  9999
2 42835  97.4049 293.7725 0012860  71.0764 289.1852 14.98875042425222
LEMUR-2-GREENBERG       
1 42837U 17042N   25124.44947424  .00014841  00000+0  74238-3 0  9994
2 42837  97.3681 306.9553 0011356  11.2904 348.8582 15.17464383426141
LEMUR-2-FURIAUS         
1 42840U 17042R   25124.43962481  .00013904  00000+0  72510-3 0  9997
2 42840  97.3676 306.0533 0011156  64.1969 296.0414 15.16014263426037
CORVUS BC2              
1 42846U 17042X   25124.48842208  .00005062  00000+0  38261-3 0  9993
2 42846  97.3740 298.8204 0015022  71.4308 288.8548 15.02693499425611
CORVUS BC1              
1 42847U 17042Y   25124.47867135  .00004765  00000+0  35822-3 0  9998
2 42847  97.3777 299.3179 0014181  52.3802 307.8708 15.02935766425639
VRSS-2                  
1 42954U 17060A   25124.48670668  .00001574  00000+0  21308-3 0  9990
2 42954  97.7051 174.5085 0017194   0.4794 359.6432 14.80228445407978
MOHAMMED VI-A           
1 43005U 17070A   25124.52370657  .00001328  00000+0  19525-3 0  9994
2 43005  97.9550 197.7062 0001221  90.8271 269.3079 14.77093216403658
FENGYUN 3D              
1 43010U 17072A   25124.51626787  .00000189  00000+0  11096-3 0  9998
2 43010  98.9596  87.9062 0002360 116.3945 243.7473 14.19619080387005
CZ-4C R/B               
1 43012U 17072C   25124.23653966  .00000591  00000+0  12663-3 0  9996
2 43012  98.5731 214.2548 0122852 331.6917  27.7641 14.58260765397023
NOAA 20 (JPSS-1)        
1 43013U 17073A   25124.53931782  .00000133  00000+0  83979-4 0  9997
2 43013  98.7398  63.5828 0002025  60.4338 299.7040 14.19533894386490
MIRATA                  
1 43015U 17073C   25123.93769511  .00067630  00000+0  12611-2 0  9999
2 43015  97.5437  17.2725 0088153 216.6465 142.8734 15.44321063405141
MAKERSAT 0              
1 43016U 17073D   25124.15017789  .00017076  00000+0  70445-3 0  9997
2 43016  97.5240   2.7064 0147834 266.2948  92.1369 15.14595650404218
RADFXSAT (FOX-1B)       
1 43017U 17073E   25124.21083001  .00009390  00000+0  48898-3 0  9992
2 43017  97.5293 355.9084 0172752 290.6924  67.5858 15.04160855403744
EAGLESAT 1              
1 43018U 17073F   25124.46905129  .00054802  00000+0  11215-2 0  9994
2 43018  97.5447  16.8870 0093135 222.5268 136.8739 15.41294937404934
JILIN-1 04              
1 43022U 17074A   25124.53136094  .00012997  00000+0  43342-3 0  9991
2 43022  97.4751 222.3956 0004884 201.4906 158.6131 15.31203102411527
JILIN-1 05              
1 43023U 17074B   25124.56555328  .00007186  00000+0  26572-3 0  9990
2 43023  97.4782 222.3971 0004752 224.8832 135.2024 15.28005566411498
JILIN-1 06              
1 43024U 17074C   25124.54828418  .00010599  00000+0  40732-3 0  9998
2 43024  97.4750 219.9625 0006783 241.1168 118.9390 15.26592423411341
IRIDIUM 116             
1 43072U 17083C   25124.51100979  .00000043  00000+0  81817-5 0  9997
2 43072  86.3944 132.8681 0002577  93.0293 267.1197 14.34217614385594
IRIDIUM 130             
1 43073U 17083D   25124.47929563  .00000131  00000+0  39820-4 0  9995
2 43073  86.3951 133.1167 0002501  99.7610 260.3868 14.34218443385534
LKW-2                   
1 43080U 17084A   25124.47982429  .00008286  00000+0  35136-3 0  9998
2 43080  97.1748 178.1110 0001497 238.4881 121.6210 15.23361182409432
SUPERVIEW-1 03          
1 43099U 18002A   25124.52159822  .00015886  00000+0  59335-3 0  9999
2 43099  97.3410 208.6777 0063431 196.9600 162.9519 15.25536600405809
CARTOSAT-2F             
1 43111U 18004A   25124.52302766  .00007248  10235-7  34415-3 0  9997
2 43111  97.4566 185.2984 0001619 190.8163 169.3037 15.19293314387073
CARBONITE 2             
1 43115U 18004E   25124.31215545  .00577959  15825-3  92764-3 0  9994
2 43115  97.2052 207.5933 0006028 221.3987 138.6838 16.03583564407984
LKW-3                   
1 43146U 18006A   25124.53591284  .00011035  00000+0  43717-3 0  9998
2 43146  97.6120 268.6822 0002471 323.6253  36.4816 15.25588109406223
ASNARO-2                
1 43152U 18007A   25124.49220660  .00013628  00000+0  59306-3 0  9999
2 43152  97.4049 132.6294 0001323  89.0998 271.0390 15.22355413405236
JILIN-1 07              
1 43159U 18008E   25124.55710330  .00009934  00000+0  37325-3 0  9994
2 43159  97.2101 151.8196 0011592  82.3774 277.8782 15.27304484402481
JILIN-1 08              
1 43160U 18008F   25124.50782193  .00008822  00000+0  33732-3 0  9990
2 43160  97.2117 151.3823 0009082  94.6201 265.6076 15.26782833402459
LEMUR-2-URAMCHANSOL     
1 43183U 18014D   25124.21923727  .00189445  00000+0  11060-2 0  9990
2 43183  97.5189  43.5869 0003706 107.7365 252.4305 15.77853293398113
LEMUR-2-KADI            
1 43184U 18014E   25124.20559239  .00025174  00000+0  77528-3 0  9993
2 43184  97.5186  34.0630 0004695 298.4374  61.6394 15.33612298397610
S-NET D                 
1 43186U 18014G   25124.48885999  .00007067  00000+0  42124-3 0  9995
2 43186  97.5648  27.7672 0009042   1.1061 359.0187 15.11451482396922
